{
  "type": "FeatureCollection",
  "crs": {"type": "name", "properties": {"name": "urn:ogc:def:crs:OGC:1.3:CRS84"}},
  "features": [
    {
      "type": "Feature",
      "properties": {"metzone_id": "UPPER_COLUMBIA_1", "catchment_name": "UC_101", "area_km2": 45.2},
      "geometry": {"type": "Polygon", "coordinates": [[[-117.5, 48.0], [-117.0, 48.0], [-117.0, 48.5], [-117.5, 48.5], [-117.5, 48.0]]]}
    },
    {
      "type": "Feature",
      "properties": {"metzone_id": "UPPER_COLUMBIA_1", "catchment_name": "UC_102", "area_km2": 38.7},
      "geometry": {"type": "Polygon", "coordinates": [[[-117.0, 48.0], [-116.5, 48.0], [-116.5, 48.5], [-117.0, 48.5], [-117.0, 48.0]]]}
    },
    {
      "type": "Feature",
      "properties": {"metzone_id": "UPPER_COLUMBIA_1", "catchment_name": "UC_103", "area_km2": 52.1},
      "geometry": {"type": "Polygon", "coordinates": [[[-117.5, 47.5], [-117.0, 47.5], [-117.0, 48.0], [-117.5, 48.0], [-117.5, 47.5]]]}
    },
    {
      "type": "Feature",
      "properties": {"metzone_id": "UPPER_COLUMBIA_2", "catchment_name": "UC_201", "area_km2": 61.4},
      "geometry": {"type": "Polygon", "coordinates": [[[-116.5, 48.0], [-116.0, 48.0], [-116.0, 48.5], [-116.5, 48.5], [-116.5, 48.0]]]}
    },
    {
      "type": "Feature",
      "properties": {"metzone_id": "UPPER_COLUMBIA_2", "catchment_name": "UC_202", "area_km2": 44.9},
      "geometry": {"type": "Polygon", "coordinates": [[[-116.0, 48.0], [-115.5, 48.0], [-115.5, 48.5], [-116.0, 48.5], [-116.0, 48.0]]]}
    },
    {
      "type": "Feature",
      "properties": {"metzone_id": "CLEARWATER_1", "catchment_name": "CW_101", "area_km2": 78.3},
      "geometry": {"type": "Polygon", "coordinates": [[[-116.5, 47.0], [-116.0, 47.0], [-116.0, 47.5], [-116.5, 47.5], [-116.5, 47.0]]]}
    },
    {
      "type": "Feature",
      "properties": {"metzone_id": "CLEARWATER_1", "catchment_name": "CW_102", "area_km2": 55.6},
      "geometry": {"type": "Polygon", "coordinates": [[[-116.0, 47.0], [-115.5, 47.0], [-115.5, 47.5], [-116.0, 47.5], [-116.0, 47.0]]]}
    },
    {
      "type": "Feature",
      "properties": {"metzone_id": "CLEARWATER_2", "catchment_name": "CW_201", "area_km2": 42.1},
      "geometry": {"type": "Polygon", "coordinates": [[[-115.5, 47.0], [-115.0, 47.0], [-115.0, 47.5], [-115.5, 47.5], [-115.5, 47.0]]]}
    }
  ]
}
