{
  "type": "FeatureCollection",
  "name": "example_polygons",
  "crs": {
    "type": "name",
    "properties": { "name": "urn:ogc:def:crs:OGC:1.3:CRS84" }
  },
  "features": [
    {
      "type": "Feature",
      "properties": { "polygon_id": "TN_001", "name": "Upper French Broad" },
      "geometry": {
        "type": "Polygon",
        "coordinates": [[
          [-83.0, 35.5], [-82.5, 35.5], [-82.5, 36.0],
          [-83.0, 36.0], [-83.0, 35.5]
        ]]
      }
    },
    {
      "type": "Feature",
      "properties": { "polygon_id": "TN_002", "name": "Nolichucky Basin" },
      "geometry": {
        "type": "Polygon",
        "coordinates": [[
          [-82.5, 35.5], [-82.0, 35.5], [-82.0, 36.0],
          [-82.5, 36.0], [-82.5, 35.5]
        ]]
      }
    },
    {
      "type": "Feature",
      "properties": { "polygon_id": "TN_003", "name": "Watauga River" },
      "geometry": {
        "type": "Polygon",
        "coordinates": [[
          [-82.0, 35.5], [-81.5, 35.5], [-81.5, 36.0],
          [-82.0, 36.0], [-82.0, 35.5]
        ]]
      }
    },
    {
      "type": "Feature",
      "properties": { "polygon_id": "NC_001", "name": "New River Upper" },
      "geometry": {
        "type": "Polygon",
        "coordinates": [[
          [-81.5, 36.0], [-81.0, 36.0], [-81.0, 36.5],
          [-81.5, 36.5], [-81.5, 36.0]
        ]]
      }
    },
    {
      "type": "Feature",
      "properties": { "polygon_id": "NC_002", "name": "South Fork New River" },
      "geometry": {
        "type": "Polygon",
        "coordinates": [[
          [-81.0, 36.0], [-80.5, 36.0], [-80.5, 36.5],
          [-81.0, 36.5], [-81.0, 36.0]
        ]]
      }
    }
  ]
}
